{
    "links": {
        "self": "http://www.neowsapp.com/rest/v1/neo/3766335?api_key=iIulBulltgU6a56xZRHN4H3l9WmuAYTsLGpBGhQ2"
    },
    "id": "3766335",
    "neo_reference_id": "3766335",
    "name": "(2017 AN4)",
    "designation": "2017 AN4",
    "nasa_jpl_url": "http://ssd.jpl.nasa.gov/sbdb.cgi?sstr=3766335",
    "absolute_magnitude_h": 23.1,
    "estimated_diameter": {
        "kilometers": {
            "estimated_diameter_min": 0.063760979,
            "estimated_diameter_max": 0.1425738833
        },
        "meters": {
            "estimated_diameter_min": 63.7609789875,
            "estimated_diameter_max": 142.5738833281
        },
        "miles": {
            "estimated_diameter_min": 0.0396192233,
            "estimated_diameter_max": 0.0885912765
        },
        "feet": {
            "estimated_diameter_min": 209.1895703015,
            "estimated_diameter_max": 467.7620993781
        }
    },
    "is_potentially_hazardous_asteroid": false,
    "close_approach_data": [
        {
            "close_approach_date": "2017-01-16",
            "close_approach_date_full": "2017-Jan-16 10:43",
            "epoch_date_close_approach": 1484563380000,
            "relative_velocity": {
                "kilometers_per_second": "25.6952854887",
                "kilometers_per_hour": "92503.027759369",
                "miles_per_hour": "57477.7841097035"
            },
            "miss_distance": {
                "astronomical": "0.0631001807",
                "lunar": "24.5459702923",
                "kilometers": "9439652.629335109",
                "miles": "5865528.1557141442"
            },
            "orbiting_body": "Earth"
        },
        {
            "close_approach_date": "2072-01-16",
            "close_approach_date_full": "2072-Jan-16 18:50",
            "epoch_date_close_approach": 3220195800000,
            "relative_velocity": {
                "kilometers_per_second": "26.1736808585",
                "kilometers_per_hour": "94225.2510906079",
                "miles_per_hour": "58547.9067123836"
            },
            "miss_distance": {
                "astronomical": "0.0802229624",
                "lunar": "31.2067323736",
                "kilometers": "12001184.300130088",
                "miles": "7457190.1295996944"
            },
            "orbiting_body": "Earth"
        }
    ],
    "orbital_data": {
        "orbit_id": "2",
        "orbit_determination_date": "2017-04-06 08:21:10",
        "first_observation_date": "2017-01-03",
        "last_observation_date": "2017-01-06",
        "data_arc_in_days": 3,
        "observations_used": 13,
        "orbit_uncertainty": "9",
        "minimum_orbit_intersection": ".0116065",
        "jupiter_tisserand_invariant": "4.829",
        "epoch_osculation": "2457757.5",
        "eccentricity": ".6611025112125497",
        "semi_major_axis": "1.257719629983622",
        "inclination": "20.37567947054719",
        "ascending_node_longitude": "117.065048357287",
        "orbital_period": "515.198020573523",
        "perihelion_distance": ".4262380242001308",
        "perihelion_argument": "117.1874593411595",
        "aphelion_distance": "2.089201235767114",
        "perihelion_time": "2457819.140456470061",
        "mean_anomaly": "316.9280869819352",
        "mean_motion": ".6987604486508796",
        "equinox": "J2000",
        "orbit_class": {
            "orbit_class_type": "APO",
            "orbit_class_description": "Near-Earth asteroid orbits which cross the Earth’s orbit similar to that of 1862 Apollo",
            "orbit_class_range": "a (semi-major axis) > 1.0 AU; q (perihelion) < 1.017 AU"
        }
    },
    "is_sentry_object": false
}